KUIPER-00053            
1 64513U 25134P   25325.66672454 -.00026086  00000+0 -35875-2 0  9994
2 64513  51.9018 340.5554 0002114 339.9296 158.1983 14.77747951  5563
KUIPER-00054            
1 64514U 25134Q   25325.46366985  .00024165  00000+0  31879-2 0  9996
2 64514  51.8988 336.6566 0004450 312.6573  47.4014 14.79920938 24251
KUIPER-00055            
1 64515U 25134R   25325.39734332  .00017079  00000+0  86678-3 0  9998
2 64515  51.8916 328.5738 0002406  80.6009 279.5241 15.17006052 24366
KUIPER-00056            
1 64516U 25134S   25325.25391029  .00005657  00000+0  77018-3 0  9993
2 64516  51.9041 343.6173 0001742 307.5712  52.5091 14.79947224 24142
KUIPER-00057            
1 64517U 25134T   25325.44842339  .00002917  00000+0  41211-3 0  9992
2 64517  51.9009 350.2531 0008981 280.8741  79.1210 14.79867556 24064
KUIPER-00058            
1 64518U 25134U   25325.45554277  .00000853  00000+0  14125-3 0  9996
2 64518  51.9011 344.1387 0004608 320.0998  39.9625 14.79843421 24151
KUIPER-00059            
1 64519U 25134V   25325.05571384  .00020416  00000+0  26988-2 0  9997
2 64519  51.9008 340.9637 0004000 105.9194 254.2210 14.79932606 24161
KUIPER-00060            
1 64520U 25134W   25325.25578895  .00004405  00000+0  60428-3 0  9993
2 64520  51.9031 341.1040 0002322  14.6932 345.4098 14.80085860 24161
